NORAD_CAT_ID,OBJECT_NAME,OBJECT_TYPE,EPOCH,MEAN_MOTION,ECCENTRICITY,INCLINATION,RA_OF_ASC_NODE,ARG_OF_PERICENTER,MEAN_ANOMALY,BSTAR,MEAN_MOTION_DOT,MEAN_MOTION_DDOT,TLE_LINE0,TLE_LINE1,TLE_LINE2,SEMIMAJOR_AXIS,PERIOD,APOGEE,PERIGEE,DECAYED
53982.0,STARLINK-5120,PAYLOAD,2024-07-12 20:41:45,15.08845485,0.0001318,53.2185,49.3324,107.9479,252.1656,5.7551e-05,6.28e-06,0.0,0 STARLINK-5120,1 53982U 22125U   24194.86233387  .00000628  00000-0  57551-4 0  9992,2 53982  53.2185  49.3324 0001318 107.9479 252.1656 15.08845485 98145,6917.864,95.437,540.64,538.817,0.0
53982.0,STARLINK-5120,PAYLOAD,2024-07-13 07:49:27,15.08843667,0.0001549,53.2201,47.2503,92.938,267.1789,1.9829e-06,-2.56e-06,0.0,0 STARLINK-5120,1 53982U 22125U   24195.32601614 -.00000256  00000-0  19829-5 0  9991,2 53982  53.2201  47.2503 0001549  92.9380 267.1789 15.08843667 98211,6917.869,95.437,540.806,538.663,0.0
53982.0,STARLINK-5120,PAYLOAD,2024-07-13 20:32:32,15.08847988,0.0001343,53.2189,44.8745,102.8001,257.3142,-1.1137e-06,-3.06e-06,0.0,0 STARLINK-5120,1 53982U 22125U   24195.85593430 -.00000306  00000-0 -11137-5 0  9996,2 53982  53.2189  44.8745 0001343 102.8001 257.3142 15.08847988 98371,6917.856,95.437,540.65,538.792,0.0
53982.0,STARLINK-5120,PAYLOAD,2024-07-13 23:43:18,15.08850107,0.0001376,53.2194,44.2788,104.8242,255.2902,1.811e-05,0.0,0.0,0 STARLINK-5120,1 53982U 22125U   24195.98841185  .00000000  00000-0  18110-4 0  9999,2 53982  53.2194  44.2788 0001376 104.8242 255.2902 15.08850107 98315,6917.849,95.437,540.666,538.763,0.0
53982.0,STARLINK-5120,PAYLOAD,2024-07-14 20:23:19,15.08846524,0.0001266,53.218,40.4112,92.1228,267.9909,6.2132e-05,7.01e-06,0.0,0 STARLINK-5120,1 53982U 22125U   24196.84953389  .00000701  00000-0  62132-4 0  9996,2 53982  53.2180  40.4112 0001266  92.1228 267.9909 15.08846524 98449,6917.86,95.437,540.601,538.85,0.0
53982.0,STARLINK-5120,PAYLOAD,2024-07-15 20:14:07,15.08840738,0.0001321,53.2179,35.9553,92.9371,267.1773,4.3508e-05,4.05e-06,0.0,0 STARLINK-5120,1 53982U 22125U   24197.84314006  .00000405  00000-0  43508-4 0  9991,2 53982  53.2179  35.9553 0001321  92.9371 267.1773 15.08840738 98671,6917.878,95.438,540.657,538.829,0.0
53982.0,STARLINK-5120,PAYLOAD,2024-07-16 05:46:26,15.08843295,0.0001283,53.2178,34.1709,91.5367,268.5772,2.4817e-05,1.07e-06,0.0,0 STARLINK-5120,1 53982U 22125U   24198.24057887  .00000107  00000-0  24817-4 0  9998,2 53982  53.2178  34.1709 0001283  91.5367 268.5772 15.08843295 98654,6917.87,95.437,540.623,538.848,0.0
53982.0,STARLINK-5120,PAYLOAD,2024-07-16 18:29:31,15.08840784,0.0001294,53.2178,31.7916,86.9924,273.1216,3.7533e-05,3.1e-06,0.0,0 STARLINK-5120,1 53982U 22125U   24198.77050186  .00000310  00000-0  37533-4 0  9996,2 53982  53.2178  31.7916 0001294  86.9924 273.1216 15.08840784 98730,6917.878,95.438,540.638,538.848,0.0
53982.0,STARLINK-5120,PAYLOAD,2024-07-17 05:37:13,15.08841898,0.0001336,53.218,29.7099,84.5726,275.5418,2.7625e-05,1.52e-06,0.0,0 STARLINK-5120,1 53982U 22125U   24199.23418177  .00000152  00000-0  27625-4 0  9991,2 53982  53.2180  29.7099 0001336  84.5726 275.5418 15.08841898 98886,6917.875,95.437,540.664,538.815,0.0
53982.0,STARLINK-5120,PAYLOAD,2024-07-17 19:55:41,15.08842939,0.0001197,53.2176,27.0349,97.5791,262.5338,9.6044e-05,1.241e-05,0.0,0 STARLINK-5120,1 53982U 22125U   24199.83034271  .00001241  00000-0  96044-4 0  9997,2 53982  53.2176  27.0349 0001197  97.5791 262.5338 15.08842939 98896,6917.871,95.437,540.564,538.908,0.0
53982.0,STARLINK-5120,PAYLOAD,2024-07-18 11:49:33,15.08831234,0.0001245,53.2178,24.0574,78.1779,281.9353,4.6803e-05,4.57e-06,0.0,0 STARLINK-5120,1 53982U 22125U   24200.49275318  .00000457  00000-0  46803-4 0  9997,2 53982  53.2178  24.0574 0001245  78.1779 281.9353 15.08831234 99079,6917.907,95.438,540.633,538.911,0.0
53982.0,STARLINK-5120,PAYLOAD,2024-07-18 19:46:28,15.08851012,0.0001243,53.2177,22.5708,89.186,270.9275,0.00015527,2.185e-05,0.0,0 STARLINK-5120,1 53982U 22125U   24200.82393778  .00002185  00000-0  15527-3 0  9993,2 53982  53.2177  22.5708 0001243  89.1860 270.9275 15.08851012 99124,6917.847,95.437,540.572,538.852,0.0
53982.0,STARLINK-5120,PAYLOAD,2024-07-19 11:40:20,15.08834281,0.0001052,53.2179,19.6036,98.5101,261.601,0.0001241,1.688e-05,0.0,0 STARLINK-5120,1 53982U 22125U   24201.48634796  .00001688  00000-0  12410-3 0  9999,2 53982  53.2179  19.6036 0001052  98.5101 261.6010 15.08834281 99221,6917.898,95.438,540.491,539.035,0.0
53982.0,STARLINK-5120,PAYLOAD,2024-07-19 19:37:15,15.08849669,0.0001045,53.2176,18.1114,102.7454,257.3655,0.00010555,1.393e-05,0.0,0 STARLINK-5120,1 53982U 22125U   24201.81753921  .00001393  00000-0  10555-3 0  9999,2 53982  53.2176  18.1114 0001045 102.7454 257.3655 15.08849669 99278,6917.851,95.437,540.439,538.993,0.0
53982.0,STARLINK-5120,PAYLOAD,2024-07-20 05:09:35,15.08826285,0.0001106,53.2179,16.3253,111.2283,248.8827,-3.1577e-05,-7.9e-06,0.0,0 STARLINK-5120,1 53982U 22125U   24202.21499900 -.00000790  00000-0 -31577-4 0  9998,2 53982  53.2179  16.3253 0001106 111.2283 248.8827 15.08826285 99330,6917.922,95.438,540.552,539.022,0.0
53982.0,STARLINK-5120,PAYLOAD,2024-07-20 11:31:08,15.08825151,0.0001419,53.2166,15.1414,78.8224,281.2928,-2.1375e-05,-6.28e-06,0.0,0 STARLINK-5120,1 53982U 22125U   24202.47996415 -.00000628  00000-0 -21375-4 0  9994,2 53982  53.2166  15.1414 0001419  78.8224 281.2928 15.08825151 99291,6917.926,95.438,540.772,538.809,0.0
53982.0,STARLINK-5120,PAYLOAD,2024-07-20 17:52:41,15.08834417,0.0001186,53.2173,13.9494,89.6942,270.4186,-5.9651e-05,-1.237e-05,0.0,0 STARLINK-5120,1 53982U 22125U   24202.74492052 -.00001237  00000-0 -59651-4 0  9997,2 53982  53.2173  13.9494 0001186  89.6942 270.4186 15.08834417 99337,6917.897,95.438,540.583,538.942,0.0
53982.0,STARLINK-5120,PAYLOAD,2024-07-21 05:00:22,15.08843853,0.0001199,53.2183,11.8689,90.1162,269.9968,-8.6437e-06,-4.25e-06,0.0,0 STARLINK-5120,1 53982U 22125U   24203.20859390 -.00000425  00000-0 -86437-5 0  9992,2 53982  53.2183  11.8689 0001199  90.1162 269.9968 15.08843853 99487,6917.869,95.437,540.563,538.904,0.0
53982.0,STARLINK-5120,PAYLOAD,2024-07-21 14:32:41,15.0884407,0.0001243,53.2173,10.0854,86.6481,273.4653,0.00013414,1.848e-05,0.0,0 STARLINK-5120,1 53982U 22125U   24203.60603169  .00001848  00000-0  13414-3 0  9998,2 53982  53.2173  10.0854 0001243  86.6481 273.4653 15.08844070 99466,6917.868,95.437,540.593,538.873,0.0
53982.0,STARLINK-5120,PAYLOAD,2024-07-21 17:43:26,15.08862229,0.0001599,53.2171,9.4877,127.2502,232.8636,0.00017472,2.495e-05,0.0,0 STARLINK-5120,1 53982U 22125U   24203.73849654  .00002495  00000-0  17472-3 0  9990,2 53982  53.2171   9.4877 0001599 127.2502 232.8636 15.08862229 99568,6917.812,95.436,540.784,538.571,0.0
53982.0,STARLINK-5120,PAYLOAD,2024-07-22 11:12:41,15.08847223,0.0001288,53.216,6.2185,105.0868,255.0267,0.00025192,3.724e-05,0.0,0 STARLINK-5120,1 53982U 22125U   24204.46714407  .00003724  00000-0  25192-3 0  9992,2 53982  53.2160   6.2185 0001288 105.0868 255.0267 15.08847223 99673,6917.858,95.437,540.614,538.832,0.0
53982.0,STARLINK-5120,PAYLOAD,2024-07-22 20:45:00,15.08848483,6.26e-05,53.2195,4.4339,105.032,255.0742,0.00015758,2.222e-05,0.0,0 STARLINK-5120,1 53982U 22125U   24204.86458507  .00002222  00000-0  15758-3 0  9991,2 53982  53.2195   4.4339 0000626 105.0320 255.0742 15.08848483 99655,6917.854,95.437,540.153,539.286,0.0
53982.0,STARLINK-5120,PAYLOAD,2024-07-23 11:03:29,15.08840402,0.0001569,53.2187,1.7528,120.9451,239.1695,-4.5011e-05,-1.004e-05,0.0,0 STARLINK-5120,1 53982U 22125U   24205.46075583 -.00001004  00000-0 -45011-4 0  9992,2 53982  53.2187   1.7528 0001569 120.9451 239.1695 15.08840402 99826,6917.879,95.438,540.83,538.659,0.0
53982.0,STARLINK-5120,PAYLOAD,2024-07-24 10:54:16,15.08839387,0.0001613,53.2172,357.2975,102.2665,257.8508,3.0757e-05,2.01e-06,0.0,0 STARLINK-5120,1 53982U 22125U   24206.45435530  .00000201  00000-0  30757-4 0  9991,2 53982  53.2172 357.2975 0001613 102.2665 257.8508 15.08839387 99892,6917.882,95.438,540.863,538.631,0.0
53982.0,STARLINK-5120,PAYLOAD,2024-07-25 09:09:40,15.08839558,0.0001238,53.218,353.1331,95.2796,264.8337,2.5778e-05,1.22e-06,0.0,0 STARLINK-5120,1 53982U 22125U   24207.38171655  .00000122  00000-0  25778-4 0  9998,2 53982  53.2180 353.1331 0001238  95.2796 264.8337 15.08839558100117,6917.882,95.438,540.603,538.89,0.0
53982.0,STARLINK-5120,PAYLOAD,2024-07-26 13:46:36,15.08846747,0.0001264,53.2186,347.7836,87.0764,273.0373,0.00011104,1.48e-05,0.0,0 STARLINK-5120,1 53982U 22125U   24208.57403047  .00001480  00000-0  11104-3 0  9998,2 53982  53.2186 347.7836 0001264  87.0764 273.0373 15.08846747100216,6917.86,95.437,540.599,538.85,0.0
53982.0,STARLINK-5120,PAYLOAD,2024-07-26 18:32:44,15.08858376,9.32e-05,53.2169,346.889,111.2711,248.838,0.00021573,3.149e-05,0.0,0 STARLINK-5120,1 53982U 22125U   24208.77273675  .00003149  00000-0  21573-3 0  9997,2 53982  53.2169 346.8890 0000932 111.2711 248.8380 15.08858376100321,6917.824,95.436,540.334,539.044,0.0
53982.0,STARLINK-5120,PAYLOAD,2024-07-27 02:29:41,15.08841985,4.73e-05,53.2196,345.405,89.6154,270.4892,4.4119e-06,-2.17e-06,0.0,0 STARLINK-5120,1 53982U 22125U   24209.10395166 -.00000217  00000-0  44119-5 0  9992,2 53982  53.2196 345.4050 0000473  89.6154 270.4892 15.08841985100375,6917.874,95.437,540.067,539.412,0.0
53982.0,STARLINK-5120,PAYLOAD,2024-07-27 18:23:35,15.08773027,0.0001905,53.2182,342.4272,90.8433,269.2777,0.00096676,0.00015103,0.0,0 STARLINK-5120,1 53982U 22125U   24209.76638595  .00015103  00000-0  96676-3 0  9992,2 53982  53.2182 342.4272 0001905  90.8433 269.2777 15.08773027100399,6918.085,95.442,541.268,538.632,0.0
53982.0,STARLINK-5120,PAYLOAD,2024-07-28 02:20:28,15.08835341,0.0001201,53.2189,340.9404,95.3251,264.7879,9.2597e-05,1.186e-05,0.0,0 STARLINK-5120,1 53982U 22125U   24210.09755668  .00001186  00000-0  92597-4 0  9996,2 53982  53.2189 340.9404 0001201  95.3251 264.7879 15.08835341100529,6917.895,95.438,540.59,538.929,0.0
